HRC MONOBLOCK CAMERA    
1 66052U 98067XR  26076.56627799  .00041454  00000+0  44982-3 0  9998
2 66052  51.6287  25.7531 0003882 128.5565 231.5778 15.63077383 23625
HTV-X1                  
1 66174U 25241A   26073.34423278  .00013268  00000+0  57087-3 0  9998
2 66174  51.6358  50.7100 0005741 187.4047 172.6847 15.22910160 21662
SZ-21 MODULE            
1 66515U 25246C   26076.58482274  .00029162  00000+0  24561-3 0  9993
2 66515  41.4741 154.7368 0000592 302.6268  57.4517 15.69175030 19313
SHENZHOU-22             
1 66645U 25272A   26076.58544776  .00020571  00000+0  24025-3 0  9992
2 66645  41.4671 160.1042 0006128 321.3981  38.6419 15.61097073267522
SOYUZ-MS 28             
1 66664U 25275A   26076.38694946  .00012661  00000+0  24296-3 0  9990
2 66664  51.6338  34.3055 0006232 201.4845 158.5882 15.48344038554521
DUPLEX                  
1 66906U 98067XS  26076.16232388  .00026558  00000+0  37023-3 0  9994
2 66906  51.6297  32.0587 0002872 144.1909 215.9276 15.56715573 16296
ISS OBJECT XT           
1 66907U 98067XT  26076.15474277  .00155646  00000+0  11555-2 0  9991
2 66907  51.6248  27.4856 0004898 129.1683 230.9750 15.71838586 16350
ISS OBJECT XU           
1 66908U 98067XU  26076.02515757  .00153187  00000+0  11325-2 0  9990
2 66908  51.6245  28.1163 0005124 129.6122 230.5329 15.71945163 16339
SILVERSAT               
1 66909U 98067XV  26076.13820546  .00197318  00000+0  12396-2 0  9991
2 66909  51.6238  26.6181 0005571 131.0135 229.1347 15.75587031 16369
ISS OBJECT XW           
1 66910U 98067XW  26076.47138791  .00127558  00000+0  98461-3 0  9991
2 66910  51.6245  25.8422 0005557 134.0975 226.0481 15.71007902 16407
ISS OBJECT XX           
1 66911U 98067XX  26076.56087206  .00253626  00000+0  13012-2 0  9990
2 66911  51.6215  23.4140 0007162 138.4559 221.6988 15.79948946 16432
ISS OBJECT XY           
1 66912U 98067XY  26076.11918076  .00076876  00000+0  75961-3 0  9992
2 66912  51.6277  29.5129 0003594 133.6570 226.4723 15.65191911 16314
