CCSDS_OMM_VERS = 2.0
CREATION_DATE  = 
ORIGINATOR     = 

OBJECT_NAME    = HRC MONOBLOCK CAMERA
OBJECT_ID      = 1998-067XR
CENTER_NAME    = EARTH
REF_FRAME      = TEME
TIME_SYSTEM    = UTC
MEAN_ELEMENT_THEORY = SGP/SGP4

EPOCH          = 2026-03-17T13:35:26.418336
MEAN_MOTION    = 15.63077383
ECCENTRICITY   = .00038825
INCLINATION    = 51.6287
RA_OF_ASC_NODE = 25.7531
ARG_OF_PERICENTER = 128.5565
MEAN_ANOMALY   = 231.5778

EPHEMERIS_TYPE = 0
CLASSIFICATION_TYPE = U
NORAD_CAT_ID   = 66052
ELEMENT_SET_NO = 999
REV_AT_EPOCH   = 2362
BSTAR          = .44981888E-3
MEAN_MOTION_DOT = .41454E-3
MEAN_MOTION_DDOT = 0

CCSDS_OMM_VERS = 2.0
CREATION_DATE  = 
ORIGINATOR     = 

OBJECT_NAME    = HTV-X1
OBJECT_ID      = 2025-241A
CENTER_NAME    = EARTH
REF_FRAME      = TEME
TIME_SYSTEM    = UTC
MEAN_ELEMENT_THEORY = SGP/SGP4

EPOCH          = 2026-03-14T08:15:41.712192
MEAN_MOTION    = 15.22910160
ECCENTRICITY   = .00057412
INCLINATION    = 51.6358
RA_OF_ASC_NODE = 50.7100
ARG_OF_PERICENTER = 187.4047
MEAN_ANOMALY   = 172.6847

EPHEMERIS_TYPE = 0
CLASSIFICATION_TYPE = U
NORAD_CAT_ID   = 66174
ELEMENT_SET_NO = 999
REV_AT_EPOCH   = 2166
BSTAR          = .57086916E-3
MEAN_MOTION_DOT = .13268E-3
MEAN_MOTION_DDOT = 0

CCSDS_OMM_VERS = 2.0
CREATION_DATE  = 
ORIGINATOR     = 

OBJECT_NAME    = SZ-21 MODULE
OBJECT_ID      = 2025-246C
CENTER_NAME    = EARTH
REF_FRAME      = TEME
TIME_SYSTEM    = UTC
MEAN_ELEMENT_THEORY = SGP/SGP4

EPOCH          = 2026-03-17T14:02:08.684736
MEAN_MOTION    = 15.69175030
ECCENTRICITY   = .00005925
INCLINATION    = 41.4741
RA_OF_ASC_NODE = 154.7368
ARG_OF_PERICENTER = 302.6268
MEAN_ANOMALY   = 57.4517

EPHEMERIS_TYPE = 0
CLASSIFICATION_TYPE = U
NORAD_CAT_ID   = 66515
ELEMENT_SET_NO = 999
REV_AT_EPOCH   = 1931
BSTAR          = .24560925E-3
MEAN_MOTION_DOT = .29162E-3
MEAN_MOTION_DDOT = 0

CCSDS_OMM_VERS = 2.0
CREATION_DATE  = 
ORIGINATOR     = 

OBJECT_NAME    = SHENZHOU-22
OBJECT_ID      = 2025-272A
CENTER_NAME    = EARTH
REF_FRAME      = TEME
TIME_SYSTEM    = UTC
MEAN_ELEMENT_THEORY = SGP/SGP4

EPOCH          = 2026-03-17T14:03:02.686464
MEAN_MOTION    = 15.61097073
ECCENTRICITY   = .0006128
INCLINATION    = 41.4671
RA_OF_ASC_NODE = 160.1042
ARG_OF_PERICENTER = 321.3981
MEAN_ANOMALY   = 38.6419

EPHEMERIS_TYPE = 0
CLASSIFICATION_TYPE = U
NORAD_CAT_ID   = 66645
ELEMENT_SET_NO = 999
REV_AT_EPOCH   = 26752
BSTAR          = .24025175E-3
MEAN_MOTION_DOT = .20571E-3
MEAN_MOTION_DDOT = 0

CCSDS_OMM_VERS = 2.0
CREATION_DATE  = 
ORIGINATOR     = 

OBJECT_NAME    = SOYUZ-MS 28
OBJECT_ID      = 2025-275A
CENTER_NAME    = EARTH
REF_FRAME      = TEME
TIME_SYSTEM    = UTC
MEAN_ELEMENT_THEORY = SGP/SGP4

EPOCH          = 2026-03-17T09:17:12.433344
MEAN_MOTION    = 15.48344038
ECCENTRICITY   = .00062325
INCLINATION    = 51.6338
RA_OF_ASC_NODE = 34.3055
ARG_OF_PERICENTER = 201.4845
MEAN_ANOMALY   = 158.5882

EPHEMERIS_TYPE = 0
CLASSIFICATION_TYPE = U
NORAD_CAT_ID   = 66664
ELEMENT_SET_NO = 999
REV_AT_EPOCH   = 55452
BSTAR          = .24295645E-3
MEAN_MOTION_DOT = .12661E-3
MEAN_MOTION_DDOT = 0

CCSDS_OMM_VERS = 2.0
CREATION_DATE  = 
ORIGINATOR     = 

OBJECT_NAME    = DUPLEX
OBJECT_ID      = 1998-067XS
CENTER_NAME    = EARTH
REF_FRAME      = TEME
TIME_SYSTEM    = UTC
MEAN_ELEMENT_THEORY = SGP/SGP4

EPOCH          = 2026-03-17T03:53:44.783232
MEAN_MOTION    = 15.56715573
ECCENTRICITY   = .0002872
INCLINATION    = 51.6297
RA_OF_ASC_NODE = 32.0587
ARG_OF_PERICENTER = 144.1909
MEAN_ANOMALY   = 215.9276

EPHEMERIS_TYPE = 0
CLASSIFICATION_TYPE = U
NORAD_CAT_ID   = 66906
ELEMENT_SET_NO = 999
REV_AT_EPOCH   = 1629
BSTAR          = .37023E-3
MEAN_MOTION_DOT = .26558E-3
MEAN_MOTION_DDOT = 0

CCSDS_OMM_VERS = 2.0
CREATION_DATE  = 
ORIGINATOR     = 

OBJECT_NAME    = ISS OBJECT XT
OBJECT_ID      = 1998-067XT
CENTER_NAME    = EARTH
REF_FRAME      = TEME
TIME_SYSTEM    = UTC
MEAN_ELEMENT_THEORY = SGP/SGP4

EPOCH          = 2026-03-17T03:42:49.775328
MEAN_MOTION    = 15.71838586
ECCENTRICITY   = .0004898
INCLINATION    = 51.6248
RA_OF_ASC_NODE = 27.4856
ARG_OF_PERICENTER = 129.1683
MEAN_ANOMALY   = 230.9750

EPHEMERIS_TYPE = 0
CLASSIFICATION_TYPE = U
NORAD_CAT_ID   = 66907
ELEMENT_SET_NO = 999
REV_AT_EPOCH   = 1635
BSTAR          = .11555E-2
MEAN_MOTION_DOT = .155646E-2
MEAN_MOTION_DDOT = 0

CCSDS_OMM_VERS = 2.0
CREATION_DATE  = 
ORIGINATOR     = 

OBJECT_NAME    = ISS OBJECT XU
OBJECT_ID      = 1998-067XU
CENTER_NAME    = EARTH
REF_FRAME      = TEME
TIME_SYSTEM    = UTC
MEAN_ELEMENT_THEORY = SGP/SGP4

EPOCH          = 2026-03-17T00:36:13.614048
MEAN_MOTION    = 15.71945163
ECCENTRICITY   = .0005124
INCLINATION    = 51.6245
RA_OF_ASC_NODE = 28.1163
ARG_OF_PERICENTER = 129.6122
MEAN_ANOMALY   = 230.5329

EPHEMERIS_TYPE = 0
CLASSIFICATION_TYPE = U
NORAD_CAT_ID   = 66908
ELEMENT_SET_NO = 999
REV_AT_EPOCH   = 1633
BSTAR          = .11325E-2
MEAN_MOTION_DOT = .153187E-2
MEAN_MOTION_DDOT = 0

CCSDS_OMM_VERS = 2.0
CREATION_DATE  = 
ORIGINATOR     = 

OBJECT_NAME    = SILVERSAT
OBJECT_ID      = 1998-067XV
CENTER_NAME    = EARTH
REF_FRAME      = TEME
TIME_SYSTEM    = UTC
MEAN_ELEMENT_THEORY = SGP/SGP4

EPOCH          = 2026-03-17T03:19:00.951744
MEAN_MOTION    = 15.75587031
ECCENTRICITY   = .0005571
INCLINATION    = 51.6238
RA_OF_ASC_NODE = 26.6181
ARG_OF_PERICENTER = 131.0135
MEAN_ANOMALY   = 229.1347

EPHEMERIS_TYPE = 0
CLASSIFICATION_TYPE = U
NORAD_CAT_ID   = 66909
ELEMENT_SET_NO = 999
REV_AT_EPOCH   = 1636
BSTAR          = .12396E-2
MEAN_MOTION_DOT = .197318E-2
MEAN_MOTION_DDOT = 0

CCSDS_OMM_VERS = 2.0
CREATION_DATE  = 
ORIGINATOR     = 

OBJECT_NAME    = ISS OBJECT XW
OBJECT_ID      = 1998-067XW
CENTER_NAME    = EARTH
REF_FRAME      = TEME
TIME_SYSTEM    = UTC
MEAN_ELEMENT_THEORY = SGP/SGP4

EPOCH          = 2026-03-17T11:18:47.915424
MEAN_MOTION    = 15.71007902
ECCENTRICITY   = .00055573
INCLINATION    = 51.6245
RA_OF_ASC_NODE = 25.8422
ARG_OF_PERICENTER = 134.0975
MEAN_ANOMALY   = 226.0481

EPHEMERIS_TYPE = 0
CLASSIFICATION_TYPE = U
NORAD_CAT_ID   = 66910
ELEMENT_SET_NO = 999
REV_AT_EPOCH   = 1640
BSTAR          = .98460927E-3
MEAN_MOTION_DOT = .127558E-2
MEAN_MOTION_DDOT = 0

CCSDS_OMM_VERS = 2.0
CREATION_DATE  = 
ORIGINATOR     = 

OBJECT_NAME    = ISS OBJECT XX
OBJECT_ID      = 1998-067XX
CENTER_NAME    = EARTH
REF_FRAME      = TEME
TIME_SYSTEM    = UTC
MEAN_ELEMENT_THEORY = SGP/SGP4

EPOCH          = 2026-03-17T13:27:39.345984
MEAN_MOTION    = 15.79948946
ECCENTRICITY   = .00071621
INCLINATION    = 51.6215
RA_OF_ASC_NODE = 23.4140
ARG_OF_PERICENTER = 138.4559
MEAN_ANOMALY   = 221.6988

EPHEMERIS_TYPE = 0
CLASSIFICATION_TYPE = U
NORAD_CAT_ID   = 66911
ELEMENT_SET_NO = 999
REV_AT_EPOCH   = 1643
BSTAR          = .13012471E-2
MEAN_MOTION_DOT = .253626E-2
MEAN_MOTION_DDOT = 0

CCSDS_OMM_VERS = 2.0
CREATION_DATE  = 
ORIGINATOR     = 

OBJECT_NAME    = ISS OBJECT XY
OBJECT_ID      = 1998-067XY
CENTER_NAME    = EARTH
REF_FRAME      = TEME
TIME_SYSTEM    = UTC
MEAN_ELEMENT_THEORY = SGP/SGP4

EPOCH          = 2026-03-17T02:51:37.217664
MEAN_MOTION    = 15.65191911
ECCENTRICITY   = .0003594
INCLINATION    = 51.6277
RA_OF_ASC_NODE = 29.5129
ARG_OF_PERICENTER = 133.6570
MEAN_ANOMALY   = 226.4723

EPHEMERIS_TYPE = 0
CLASSIFICATION_TYPE = U
NORAD_CAT_ID   = 66912
ELEMENT_SET_NO = 999
REV_AT_EPOCH   = 1631
BSTAR          = .75961E-3
MEAN_MOTION_DOT = .76876E-3
MEAN_MOTION_DDOT = 0

